FALCONSAT-10            
1 58291U 23174AM  26068.70247784  .00006748  00000+0  25969-3 0  9991
2 58291  97.3865 145.7938 0008932 169.5942 190.5483 15.26670596129582
STARLINK-31092          
1 58628U 23203L   26068.37045179 -.00000528  00000+0 -96672-5 0  9998
2 58628  42.9979  68.7960 0000529 234.8552 125.2250 15.27572454123513
